[{"OBJECT_NAME":"SITRO-AIS 5 (KATYS)","OBJECT_ID":"2023-091L","EPOCH":"2026-03-09T22:36:44.932608","MEAN_MOTION":15.27079182,"ECCENTRICITY":0.00133776,"INCLINATION":97.5176,"RA_OF_ASC_NODE":132.0172,"ARG_OF_PERICENTER":94.5677,"MEAN_ANOMALY":265.709,"EPHEMERIS_TYPE":0,"CLASSIFICATION_TYPE":"U","NORAD_CAT_ID":57176,"ELEMENT_SET_NO":999,"REV_AT_EPOCH":14918,"BSTAR":0.00057530772,"MEAN_MOTION_DOT":0.00015262,"MEAN_MOTION_DDOT":0},{"OBJECT_NAME":"STARLINK-31815","OBJECT_ID":"2024-093V","EPOCH":"2026-03-09T10:15:07.326432","MEAN_MOTION":15.2757693,"ECCENTRICITY":0.00013589,"INCLINATION":43.0003,"RA_OF_ASC_NODE":210.5145,"ARG_OF_PERICENTER":281.4002,"MEAN_ANOMALY":78.6697,"EPHEMERIS_TYPE":0,"CLASSIFICATION_TYPE":"U","NORAD_CAT_ID":59801,"ELEMENT_SET_NO":999,"REV_AT_EPOCH":10265,"BSTAR":3.6342236e-5,"MEAN_MOTION_DOT":7.38e-6,"MEAN_MOTION_DDOT":0}]
